NORAD_CAT_ID,OBJECT_NAME,OBJECT_TYPE,EPOCH,MEAN_MOTION,ECCENTRICITY,INCLINATION,RA_OF_ASC_NODE,ARG_OF_PERICENTER,MEAN_ANOMALY,BSTAR,MEAN_MOTION_DOT,MEAN_MOTION_DDOT,TLE_LINE0,TLE_LINE1,TLE_LINE2,SEMIMAJOR_AXIS,PERIOD,APOGEE,PERIGEE,DECAYED
53429.0,STARLINK-4543,PAYLOAD,2023-08-01 18:10:09,15.0884105,0.0001026,53.2173,53.139,94.6417,265.4692,2.9047e-05,1.75e-06,0.0,0 STARLINK-4543,1 53429U 22097AT  23213.75705226  .00000175  00000-0  29047-4 0  9997,2 53429  53.2173  53.1390 0001026  94.6417 265.4692 15.08841050 54743,6917.877,95.437,540.452,539.032,0.0
53429.0,STARLINK-4543,PAYLOAD,2023-08-01 22:56:18,15.08848391,0.0001049,53.2173,52.2462,102.9297,257.1812,4.512e-05,4.31e-06,0.0,0 STARLINK-4543,1 53429U 22097AT  23213.95576661  .00000431  00000-0  45120-4 0  9993,2 53429  53.2173  52.2462 0001049 102.9297 257.1812 15.08848391 54777,6917.855,95.437,540.445,538.994,0.0
53429.0,STARLINK-4543,PAYLOAD,2023-08-02 06:53:14,15.08841342,0.000103,53.2177,50.7582,104.2934,255.8173,6.1768e-05,6.95e-06,0.0,0 STARLINK-4543,1 53429U 22097AT  23214.28696978  .00000695  00000-0  61768-4 0  9992,2 53429  53.2177  50.7582 0001030 104.2934 255.8173 15.08841342 54820,6917.876,95.437,540.454,539.029,0.0
53429.0,STARLINK-4543,PAYLOAD,2023-08-03 17:51:43,15.08837933,0.00012,53.2183,44.2163,101.7999,258.3128,-1.1369e-05,-4.69e-06,0.0,0 STARLINK-4543,1 53429U 22097AT  23215.74425531 -.00000469  00000-0 -11369-4 0  9992,2 53429  53.2183  44.2163 0001200 101.7999 258.3128 15.08837933 55046,6917.887,95.438,540.582,538.922,0.0
53429.0,STARLINK-4543,PAYLOAD,2023-08-04 22:28:39,15.08848567,0.0001112,53.2189,38.866,88.2714,271.8405,7.9594e-05,9.79e-06,0.0,0 STARLINK-4543,1 53429U 22097AT  23216.93656786  .00000979  00000-0  79594-4 0  9990,2 53429  53.2189  38.8660 0001112  88.2714 271.8405 15.08848567 55222,6917.854,95.437,540.488,538.95,0.0
53429.0,STARLINK-4543,PAYLOAD,2023-08-05 19:08:40,15.08846559,0.0001065,53.2188,35.0012,85.8527,274.2587,0.00012261,1.664e-05,0.0,0 STARLINK-4543,1 53429U 22097AT  23217.79768824  .00001664  00000-0  12261-3 0  9991,2 53429  53.2188  35.0012 0001065  85.8527 274.2587 15.08846559 55354,6917.86,95.437,540.462,538.989,0.0
53429.0,STARLINK-4543,PAYLOAD,2023-08-06 04:41:00,15.0883392,0.0001084,53.2185,33.2122,76.3534,283.7579,1.2461e-06,-2.68e-06,0.0,0 STARLINK-4543,1 53429U 22097AT  23218.19513977 -.00000268  00000-0  12461-5 0  9997,2 53429  53.2185  33.2122 0001084  76.3534 283.7579 15.08833920 55418,6917.899,95.438,540.514,539.014,0.0
53429.0,STARLINK-4543,PAYLOAD,2023-08-06 20:34:52,15.08823914,0.0001015,53.2191,30.2416,94.0836,266.0272,-0.00011241,-2.075e-05,0.0,0 STARLINK-4543,1 53429U 22097AT  23218.85755585 -.00002075  00000-0 -11241-3 0  9995,2 53429  53.2191  30.2416 0001015  94.0836 266.0272 15.08823914 55511,6917.93,95.439,540.497,539.092,0.0
53429.0,STARLINK-4543,PAYLOAD,2023-08-07 04:31:48,15.08831448,9.78e-05,53.2192,28.7555,94.1579,265.9525,-6.2322e-05,-1.279e-05,0.0,0 STARLINK-4543,1 53429U 22097AT  23219.18875253 -.00001279  00000-0 -62322-4 0  9999,2 53429  53.2192  28.7555 0000978  94.1579 265.9525 15.08831448 55565,6917.907,95.438,540.448,539.095,0.0
53429.0,STARLINK-4543,PAYLOAD,2023-08-07 18:50:15,15.08847218,8.92e-05,53.2184,26.0789,101.0875,259.0217,2.6164e-05,1.29e-06,0.0,0 STARLINK-4543,1 53429U 22097AT  23219.78490322  .00000129  00000-0  26164-4 0  9990,2 53429  53.2184  26.0789 0000892 101.0875 259.0217 15.08847218 55652,6917.858,95.437,540.34,539.106,0.0
53429.0,STARLINK-4543,PAYLOAD,2023-08-09 04:13:21,15.08842151,8.97e-05,53.2184,19.8346,95.3143,264.7952,0.00025265,3.736e-05,0.0,0 STARLINK-4543,1 53429U 22097AT  23221.17594876  .00003736  00000-0  25265-3 0  9992,2 53429  53.2184  19.8346 0000897  95.3143 264.7952 15.08842151 55862,6917.874,95.437,540.359,539.118,0.0
53429.0,STARLINK-4543,PAYLOAD,2023-08-10 10:25:41,15.08845677,9.16e-05,53.2192,14.1832,91.2294,268.8803,-4.6389e-05,-1.026e-05,0.0,0 STARLINK-4543,1 53429U 22097AT  23222.43450629 -.00001026  00000-0 -46389-4 0  9992,2 53429  53.2192  14.1832 0000916  91.2294 268.8803 15.08845677 56051,6917.863,95.437,540.362,539.094,0.0
53429.0,STARLINK-4543,PAYLOAD,2023-08-10 19:57:59,15.08847257,8.8e-05,53.2182,12.4003,77.1382,282.9709,8.8174e-05,1.116e-05,0.0,0 STARLINK-4543,1 53429U 22097AT  23222.83193958  .00001116  00000-0  88174-4 0  9991,2 53429  53.2182  12.4003 0000880  77.1382 282.9709 15.08847257 56117,6917.858,95.437,540.332,539.114,0.0
53429.0,STARLINK-4543,PAYLOAD,2023-08-11 16:38:00,15.08845375,8.53e-05,53.2189,8.534,72.8514,287.2571,6.077e-05,6.8e-06,0.0,0 STARLINK-4543,1 53429U 22097AT  23223.69306109  .00000680  00000-0  60770-4 0  9997,2 53429  53.2189   8.5340 0000853  72.8514 287.2571 15.08845375 56241,6917.864,95.437,540.319,539.139,0.0
53429.0,STARLINK-4543,PAYLOAD,2023-08-12 10:07:15,15.08838452,8.11e-05,53.2189,5.2621,82.293,277.8154,-2.9298e-06,-3.34e-06,0.0,0 STARLINK-4543,1 53429U 22097AT  23224.42170730 -.00000334  00000-0 -29298-5 0  9997,2 53429  53.2189   5.2621 0000811  82.2930 277.8154 15.08838452 56350,6917.885,95.438,540.311,539.189,0.0
53429.0,STARLINK-4543,PAYLOAD,2023-08-12 19:39:33,15.08846764,9.93e-05,53.2186,3.4796,67.1581,292.9516,8.24e-05,1.024e-05,0.0,0 STARLINK-4543,1 53429U 22097AT  23224.81914074  .00001024  00000-0  82400-4 0  9995,2 53429  53.2186   3.4796 0000993  67.1581 292.9516 15.08846764 56417,6917.86,95.437,540.412,539.038,0.0
53429.0,STARLINK-4543,PAYLOAD,2023-08-13 02:01:06,15.08836764,0.0001055,53.2187,2.2883,66.6853,293.425,-9.0231e-06,-4.31e-06,0.0,0 STARLINK-4543,1 53429U 22097AT  23225.08410779 -.00000431  00000-0 -90231-5 0  9993,2 53429  53.2187   2.2883 0001055  66.6853 293.4250 15.08836764 56452,6917.89,95.438,540.485,539.025,0.0
53429.0,STARLINK-4543,PAYLOAD,2023-08-13 09:58:03,15.08832982,0.0001021,53.2186,0.8026,71.3434,288.7669,-8.5681e-05,-1.651e-05,0.0,0 STARLINK-4543,1 53429U 22097AT  23225.41531491 -.00001651  00000-0 -85681-4 0  9992,2 53429  53.2186   0.8026 0001021  71.3434 288.7669 15.08832982 56500,6917.902,95.438,540.473,539.061,0.0
53429.0,STARLINK-4543,PAYLOAD,2023-08-13 17:54:58,15.0884153,8.39e-05,53.2186,359.3176,83.7419,276.3669,-1.6791e-05,-5.55e-06,0.0,0 STARLINK-4543,1 53429U 22097AT  23225.74650830 -.00000555  00000-0 -16791-4 0  9995,2 53429  53.2186 359.3176 0000839  83.7419 276.3669 15.08841530 56551,6917.876,95.437,540.321,539.16,0.0
53429.0,STARLINK-4543,PAYLOAD,2023-08-15 01:42:40,15.08859243,6.97e-05,53.2184,353.371,81.4512,278.6559,-6.3451e-05,-1.298e-05,0.0,0 STARLINK-4543,1 53429U 22097AT  23227.07129740 -.00001298  00000-0 -63451-4 0  9994,2 53429  53.2184 353.3710 0000697  81.4512 278.6559 15.08859243 56753,6917.822,95.436,540.169,539.204,0.0
53429.0,STARLINK-4543,PAYLOAD,2023-08-15 08:04:13,15.08838021,0.0001151,53.2183,352.1817,82.4871,277.6252,0.00018335,2.631e-05,0.0,0 STARLINK-4543,1 53429U 22097AT  23227.33626923  .00002631  00000-0  18335-3 0  9998,2 53429  53.2183 352.1817 0001151  82.4871 277.6252 15.08838021 56796,6917.886,95.438,540.548,538.955,0.0
53429.0,STARLINK-4543,PAYLOAD,2023-08-15 17:36:32,15.08845372,9.53e-05,53.2173,350.3974,81.1555,278.9546,0.00015306,2.149e-05,0.0,0 STARLINK-4543,1 53429U 22097AT  23227.73370488  .00002149  00000-0  15306-3 0  9993,2 53429  53.2173 350.3974 0000953  81.1555 278.9546 15.08845372 56857,6917.864,95.437,540.388,539.07,0.0
53429.0,STARLINK-4543,PAYLOAD,2023-08-16 15:51:56,15.08844557,0.0001417,53.2171,346.2336,86.1551,273.9603,7.4702e-05,9.01e-06,0.0,0 STARLINK-4543,1 53429U 22097AT  23228.66106598  .00000901  00000-0  74702-4 0  9995,2 53429  53.2171 346.2336 0001417  86.1551 273.9603 15.08844557 56996,6917.866,95.437,540.712,538.751,0.0
53429.0,STARLINK-4543,PAYLOAD,2023-08-18 10:47:20,15.08837027,0.0001872,53.2156,338.2013,163.9898,196.1154,-1.8889e-05,-5.89e-06,0.0,0 STARLINK-4543,1 53429U 22097AT  23230.44954487 -.00000589  00000-0 -18889-4 0  9990,2 53429  53.2156 338.2013 0001872 163.9898 196.1154 15.08837027 57267,6917.889,95.438,541.05,538.459,0.0
53429.0,STARLINK-4543,PAYLOAD,2023-08-19 15:24:16,15.08849883,9.78e-05,53.2178,332.8526,101.2051,258.9051,8.259e-05,1.027e-05,0.0,0 STARLINK-4543,1 53429U 22097AT  23231.64186081  .00001027  00000-0  82590-4 0  9996,2 53429  53.2178 332.8526 0000978 101.2051 258.9051 15.08849883 57448,6917.85,95.437,540.392,539.039,0.0
53429.0,STARLINK-4543,PAYLOAD,2023-08-20 12:04:18,15.08830702,0.0001206,53.2179,328.988,110.4946,249.6175,6.6511e-05,7.71e-06,0.0,0 STARLINK-4543,1 53429U 22097AT  23232.50299665  .00000771  00000-0  66511-4 0  9995,2 53429  53.2179 328.9880 0001206 110.4946 249.6175 15.08830702 57576,6917.909,95.438,540.608,538.94,0.0
53429.0,STARLINK-4543,PAYLOAD,2023-08-21 11:55:05,15.08843839,0.0001267,53.2187,324.5275,109.1865,250.9264,7.788e-05,9.52e-06,0.0,0 STARLINK-4543,1 53429U 22097AT  23233.49659119  .00000952  00000-0  77880-4 0  9990,2 53429  53.2187 324.5275 0001267 109.1865 250.9264 15.08843839 57723,6917.869,95.437,540.61,538.857,0.0
53429.0,STARLINK-4543,PAYLOAD,2023-08-22 11:45:52,15.08839417,0.0001141,53.2187,320.0675,82.4185,277.6937,0.00010234,1.341e-05,0.0,0 STARLINK-4543,1 53429U 22097AT  23234.49019591  .00001341  00000-0  10234-3 0  9997,2 53429  53.2187 320.0675 0001141  82.4185 277.6937 15.08839417 57873,6917.882,95.438,540.537,538.958,0.0
53429.0,STARLINK-4543,PAYLOAD,2023-08-24 11:27:26,15.08843343,0.0001329,53.218,311.1465,95.6427,264.4717,9.7184e-05,1.259e-05,0.0,0 STARLINK-4543,1 53429U 22097AT  23236.47739415  .00001259  00000-0  97184-4 0  9999,2 53429  53.2180 311.1465 0001329  95.6427 264.4717 15.08843343 58657,6917.87,95.437,540.655,538.816,0.0
53429.0,STARLINK-4543,PAYLOAD,2023-08-25 09:42:50,15.0884136,0.0001399,53.2179,306.9842,89.5277,270.5875,5.3006e-05,5.56e-06,0.0,0 STARLINK-4543,1 53429U 22097AT  23237.40475610  .00000556  00000-0  53006-4 0  9991,2 53429  53.2179 306.9842 0001399  89.5277 270.5875 15.08841360 58793,6917.876,95.437,540.709,538.773,0.0
